SatCatId,ObjectName,LaunchYear,OrbitalPeriod,LaunchMass,StatusCode,Inclination,Status,UcsData,OrbitClassEstimated,LaunchSiteCountry,Owner,UseType,Purpose,LaunchVehicleClass,TLE1,TLE2,MeanMotion,Eccentricity,OrbitClass
12326,COSMOS 1256,1981,115.24,-1.0,UNK,74.03,Inactive,0,LEO,Russia,Russia/USSR,Unknown,Unknown,Unknown,1 12326U 81022G   24054.70404429 -.00000019  00000+0 -17937-4 0  9994,2 12326  74.0304  29.4707 0012787 343.1324 189.4575 12.49579328960293,12.49579328,0.0012787,LEO
12327,COSMOS 1257,1981,115.4,-1.0,UNK,74.03,Inactive,0,LEO,Russia,Russia/USSR,Unknown,Unknown,Unknown,1 12327U 81022H   24054.60071428  .00000018  00000+0  22505-3 0  9996,2 12327  74.0269  97.2097 0006241 125.7902 353.0215 12.47836841957316,12.47836841,0.0006241,LEO
4138,COSMOS 304,1969,99.57,-1.0,UNK,74.04,Inactive,0,LEO,Russia,Russia/USSR,Unknown,Unknown,Unknown,1 04138U 69091A   24054.81050916  .00000124  00000+0  42169-4 0  9998,2 04138  74.0412   7.4508 0013790 225.3682 134.6353 14.46198659866118,14.46198659,0.001379,LEO
20523,INTELSAT 603 (IS-603),1990,1447.45,-1.0,-,13.48,Inactive,0,GSO,USA,INTELSAT,Unknown,Unknown,Unknown,1 20523U 90021A   24053.71968990 -.00000290  00000+0  00000+0 0  9997,2 20523  13.4751  15.2622 0006028  52.6316 138.7051  0.99485524116999,0.99485524,0.0006028,GSO
28707,EXPRESS-AM3,2005,1454.58,2600.0,-,5.16,Inactive,1,GSO,Kazakhstan,Russia/USSR,Commercial,Communications,Proton,1 28707U 05023A   24054.20244209  .00000073  00000+0  00000+0 0  9990,2 28707   5.1596  77.5903 0005620 222.3415 348.4003  0.98997182 44840,0.98997182,0.000562,GSO
20527,COSMOS 2061,1990,104.94,-1.0,UNK,82.93,Inactive,0,LEO,Russia,Russia/USSR,Unknown,Unknown,Unknown,1 20527U 90023A   24054.58115628  .00000089  00000+0  80968-4 0  9992,2 20527  82.9325  72.7414 0032533  90.1545  30.1372 13.72261690698963,13.7226169,0.0032533,LEO
12339,OPS 7350 (DSP 9),1981,1457.1,-1.0,UNK,9.9,Inactive,0,GSO,USA,USA,Unknown,Unknown,Unknown,1 12339U 81025A   24054.18132337 -.00000109  00000+0  00000+0 0  9996,2 12339   9.9041 311.2776 0017173 266.9475 289.3047  0.98827043 17482,0.98827043,0.0017173,GSO
20533,NAVSTAR 19 (USA 54),1990,753.77,-1.0,-,54.06,Inactive,0,MEO,USA,USA,Unknown,Unknown,Unknown,1 20533U 90025A   24051.02780361  .00000021  00000+0  00000+0 0  9999,2 20533  54.0602 277.0574 0041674 211.9674 327.8113  1.91039564238811,1.91039564,0.0041674,MEO
20536,COSMOS 2063,1990,721.43,-1.0,UNK,66.76,Inactive,0,MEO,Russia,Russia/USSR,Unknown,Unknown,Molniya,1 20536U 90026A   24054.48631266  .00000593  00000+0  00000+0 0  9999,2 20536  66.7609 219.2505 5932704 144.3195 275.9167  1.99600456247193,1.99600456,0.5932704,MEO
12351,RADUGA 8,1981,1434.51,-1.0,-,8.32,Inactive,0,GSO,Kazakhstan,Russia/USSR,Unknown,Unknown,Unknown,1 12351U 81027A   24054.32349497 -.00000291  00000+0  00000+0 0  9997,2 12351   8.3279 297.9554 0080185 246.9953  31.1110  1.00383377114065,1.00383377,0.0080185,GSO
20547,USA 55,1990,94.04,-1.0,UNK,94.1,Inactive,0,LEO,USA,USA,Unknown,Unknown,Unknown,1 20547U 90028B   24054.86977362  .00005484  00000+0  16715-3 0  9993,2 20547  94.0960  31.2268 0074718 114.5406 246.3654 15.31287311871578,15.31287311,0.0074718,LEO
20549,COSMOS 2064,1990,115.46,-1.0,UNK,73.98,Inactive,0,LEO,Russia,Russia/USSR,Unknown,Unknown,Unknown,1 20549U 90029A   24054.46796831 -.00000008  00000+0  51976-4 0  9999,2 20549  73.9814  44.0015 0017393 196.3063 285.5332 12.47204680542787,12.4720468,0.0017393,LEO
20550,COSMOS 2065,1990,115.28,-1.0,UNK,73.99,Inactive,0,LEO,Russia,Russia/USSR,Unknown,Unknown,Unknown,1 20550U 90029B   24054.86550368 -.00000011  00000+0  34008-4 0  9999,2 20550  73.9857 342.4557 0008314 168.4597 249.2074 12.49184704545472,12.49184704,0.0008314,LEO
20551,COSMOS 2066,1990,114.31,-1.0,UNK,73.98,Inactive,0,LEO,Russia,Russia/USSR,Unknown,Unknown,Unknown,1 20551U 90029C   24054.34712536 -.00000023  00000+0 -34013-4 0  9990,2 20551  73.9840  18.0388 0050138 293.0667 178.2439 12.59689242558161,12.59689242,0.0050138,LEO
4168,TEMPSAT 2,1969,103.17,-1.0,UNK,70.01,Inactive,0,LEO,USA,USA,Unknown,Unknown,Unknown,1 04168U 69082H   24054.87867925  .00000074  00000+0  93124-4 0  9994,2 04168  70.0129 101.4098 0018600 155.0420 205.1590 13.95746085770324,13.95746085,0.00186,LEO
20552,COSMOS 2067,1990,114.48,-1.0,UNK,73.98,Inactive,0,LEO,Russia,Russia/USSR,Unknown,Unknown,Unknown,1 20552U 90029D   24054.79008711  .00000010  00000+0  15557-3 0  9998,2 20552  73.9792  72.8327 0039832   2.1253 170.9508 12.57914189556249,12.57914189,0.0039832,LEO
20553,COSMOS 2068,1990,114.63,-1.0,UNK,73.98,Inactive,0,LEO,Russia,Russia/USSR,Unknown,Unknown,Unknown,1 20553U 90029E   24054.56476174 -.00000001  00000+0  94434-4 0  9999,2 20553  73.9812 124.9737 0030401  54.9888  53.0836 12.56250822553900,12.56250822,0.0030401,LEO
20554,COSMOS 2069,1990,114.79,-1.0,UNK,73.98,Inactive,0,LEO,Russia,Russia/USSR,Unknown,Unknown,Unknown,1 20554U 90029F   24054.61729652 -.00000029  00000+0 -79037-4 0  9991,2 20554  73.9825 178.4554 0021312 114.9897 255.8560 12.54519208551777,12.54519208,0.0021312,LEO
20555,COSMOS 2070,1990,114.94,-1.0,UNK,73.98,Inactive,0,LEO,Russia,Russia/USSR,Unknown,Unknown,Unknown,1 20555U 90029G   24054.59193161 -.00000008  00000+0  50319-4 0  9997,2 20555  73.9790 232.3307 0013393 161.7707 265.7584 12.52783287549631,12.52783287,0.0013393,LEO
20556,COSMOS 2071,1990,115.12,-1.0,UNK,73.98,Inactive,0,LEO,Russia,Russia/USSR,Unknown,Unknown,Unknown,1 20556U 90029H   24054.37427837  .00000017  00000+0  21802-3 0  9997,2 20556  73.9812 289.8271 0003409 250.2032 283.4899 12.50920887547288,12.50920887,0.0003409,LEO
20558,ASIASAT 1,1990,1451.0,-1.0,-,14.81,Inactive,0,GSO,PRC,ASIASAT,Unknown,Unknown,Long March,1 20558U 90030A   24054.28476550 -.00000245  00000+0  00000+0 0  9994,2 20558  14.8070   5.3472 0001603 344.6202  22.1544  0.99242910 37839,0.9924291,0.0001603,GSO
45135,ONEWEB-0022,2020,109.89,148.0,-,87.89,Inactive,1,LEO,Kazakhstan,UK,Commercial,Communications,Soyuz,1 45135U 20008E   24054.79851079  .00000330  00000+0  90993-3 0  9997,2 45135  87.8944 204.0276 0001260  98.8545 261.2725 13.10395127198510,13.10395127,0.000126,LEO
12376,COSMOS 1261,1981,717.32,-1.0,UNK,68.35,Inactive,0,MEO,Russia,Russia/USSR,Unknown,Unknown,Molniya,1 12376U 81031A   24052.51933663 -.00000233  00000+0  00000+0 0  9998,2 12376  68.3508 142.5042 6221439  11.6757 357.8589  2.00746382210474,2.00746382,0.6221439,MEO
20570,NEWSAT-1 (PALAPA B2R),1990,1446.78,-1.0,-,14.47,Inactive,0,GSO,USA,USA,Unknown,Unknown,Long March,1 20570U 90034A   24054.21697487 -.00000345  00000+0  00000+0 0  9990,2 20570  14.4672   9.2075 0010038 120.1952 237.0340  0.99532253 37877,0.99532253,0.0010038,GSO
45148,ONEWEB-0041,2020,106.79,148.0,-,87.95,Inactive,1,LEO,Kazakhstan,UK,Commercial,Communications,Soyuz,1 45148U 20008T   24054.81795346  .00000093  00000+0  12667-3 0  9996,2 45148  87.9474 179.4108 0019116 129.8496 230.4339 13.48444360205064,13.4844436,0.0019116,LEO
20577,COSMOS 2074,1990,104.75,-1.0,UNK,82.95,Inactive,0,LEO,Russia,Russia/USSR,Unknown,Unknown,Unknown,1 20577U 90036A   24054.43362949  .00000072  00000+0  59477-4 0  9998,2 20577  82.9459  11.7374 0028016  45.5238  76.0131 13.74752287697654,13.74752287,0.0028016,LEO
12388,COSMOS 1263,1981,101.53,-1.0,UNK,82.87,Inactive,0,LEO,Russia,Russia/USSR,Unknown,Unknown,Unknown,1 12388U 81033A   24054.85114455  .00010793  00000+0  65863-3 0  9995,2 12388  82.8647 186.6814 0624790 142.7460 221.8819 14.18207843151180,14.18207843,0.062479,LEO
28773,SUZAKU (ASTRO-EII),2005,93.59,-1.0,-,31.39,Inactive,0,LEO,Japan,Japan,Unknown,Unknown,Unknown,1 28773U 05025A   24054.56798397  .00026592  00000+0  67445-3 0  9990,2 28773  31.3871 193.0482 0002240 153.8937 206.1830 15.38488461 29282,15.38488461,0.000224,LEO
20596,COSMOS 2076,1990,717.98,-1.0,UNK,68.63,Inactive,0,MEO,Russia,Russia/USSR,Unknown,Unknown,Molniya,1 20596U 90040A   24050.89486446 -.00000505  00000+0  00000+0 0  9994,2 20596  68.6308 235.8391 5218733 125.8120   7.3756  2.00567775247734,2.00567775,0.5218733,MEO
12409,COSMOS 1266,1981,103.56,-1.0,UNK,64.76,Inactive,0,LEO,Kazakhstan,Russia/USSR,Unknown,Unknown,Unknown,1 12409U 81037A   24054.66443775 -.00000050  00000+0  33579-4 0  9998,2 12409  64.7634  24.5120 0028388 190.0757 169.9739 13.90517657175450,13.90517657,0.0028388,LEO
4221,AZUR (GRS A),1969,98.44,-1.0,UNK,102.69,Inactive,0,LEO,USA,Germany,Unknown,Unknown,Unknown,1 04221U 69097A   24054.58053402  .00038961  00000+0  13292-2 0  9997,2 04221 102.6913  23.8818 0478886  41.8246 321.8515 14.62637441599027,14.62637441,0.0478886,LEO
20607,MACSAT 1 (M 1),1990,97.76,-1.0,UNK,89.72,Inactive,0,LEO,USA,USA,Unknown,Unknown,Unknown,1 20607U 90043A   24054.84000380  .00000942  00000+0  13387-3 0  9998,2 20607  89.7184 272.2350 0095263 113.0827 248.0470 14.72949329810848,14.72949329,0.0095263,LEO
20608,MACSAT 2 (M 2),1990,97.47,-1.0,UNK,89.72,Inactive,0,LEO,USA,USA,Unknown,Unknown,Unknown,1 20608U 90043B   24054.62263989  .00001321  00000+0  17317-3 0  9990,2 20608  89.7212 273.1768 0084344 311.2043  48.1928 14.77350284813755,14.77350284,0.0084344,LEO
28809,KIRARI (OICETS),2005,95.47,-1.0,UNK,98.15,Inactive,0,LEO,Kazakhstan,Japan,Unknown,Unknown,Unknown,1 28809U 05031A   24054.52080762  .00009616  00000+0  62214-3 0  9990,2 28809  98.1461 238.6607 0013059  61.7665 298.4878 15.08344373 10510,15.08344373,0.0013059,LEO
20619,COSMOS 2079 [GLONASS],1990,675.73,-1.0,-,65.18,Inactive,0,MEO,Kazakhstan,Russia/USSR,Unknown,Unknown,Unknown,1 20619U 90045A   24053.42569990 -.00000084  00000+0  00000+0 0  9995,2 20619  65.1809 337.5631 0045077 209.1819 343.6425  2.13102998262732,2.13102998,0.0045077,MEO
20620,COSMOS 2080 [GLONASS],1990,675.73,-1.0,-,65.18,Inactive,0,MEO,Kazakhstan,Russia/USSR,Unknown,Unknown,Unknown,1 20620U 90045B   24054.35508937 -.00000079  00000+0  00000+0 0  9998,2 20620  65.1758 337.4807 0023794  31.4171  63.4791  2.13102739262602,2.13102739,0.0023794,MEO
